CSS (TIANHE)            
1 48274U 21035A   24091.18017116  .00050023  00000+0  50522-3 0  9993
2 48274  41.4676 199.8593 0010151 290.3173  69.6576 15.64427551166880
